#dP2021 12 16  0  0  0.00000000      96 __u+U ITR00 FIT  IAC
## 2188 345600.00000000   900.00000000 59564 0.0000000000000
+  125   C01C02C03C04C05C06C07C08C09C10C11C12C13C14C16C19C20
+        C21C22C23C24C25C26C27C28C29C30C32C33C34C35C36C37C38
+        C39C40C41C42C43C44C45C46C59C60E01E02E03E04E05E07E08
+        E09E11E12E13E14E15E18E19E21E24E25E26E27E30E31E33E36
+        G01G02G03G04G05G06G07G08G09G10G12G13G14G15G16G17G18
+        G19G20G21G22G23G24G25G26G27G28G29G30G31G32J01J02J03
+        R01R02R03R04R05R06R07R08R09R10R11R12R13R14R15R17R18
+        R19R20R21R22R23R24  0  0  0  0  0  0  0  0  0  0  0
++         0 12 13 13 12  9  9  9  9  9  8  8  9  8  9  7  7
++         7  7  7  7  7  7  7  7  7  7  7  7  7  7  8  7  8
++         8  8  7  7  7  7  7  8 14 12  4  4  4  4  5  4  4
++         5  5  4  5  5  4  4  4  4  4  4  4  4  5  4  4  5
++         4  4  4  4  4  4  4  3  4  3  4  3  3  4  4  4  3
++         4  4  4  4  3  4  4  4  4  4  4  3  4  4  8  8  8
++         7  6  6  6  6 13  6  5  6 13  7  6  8  5  6  6  6
++         7  7  6  7 13  6  0  0  0  0  0  0  0  0  0  0  0
%c M  cc GPS ccc cccc cccc cccc cccc ccccc ccccc ccccc ccccc
%c cc cc ccc ccc cccc cccc cccc cccc ccccc ccccc ccccc ccccc
%f  0.0000000  0.000000000  0.00000000000  0.000000000000000
%f  0.0000000  0.000000000  0.00000000000  0.000000000000000
%i    0    0    0    0      0      0      0      0         0
%i    0    0    0    0      0      0      0      0         0
/* INFORMATION & ANALYSIS CENTER (IAC)            RAPID DATA
/* S/V CLOCKS ARE ALIGNED TO GNSS TIME                      
/* G:C1WC2W R:C1PC2P E:C1XC5X C:C2IC6I J:C1CC2S             
/* PCV:IGS14_2186 OL/AL:FES2004  NONE     YN ORB:CoN CLK:CoN
*  2021 12 16  6 30  0.00000000
PC01      0.000000      0.000000      0.000000 999999.999999
PC02   4533.238448  41922.176939    -53.664093    802.467783
PC03 -14759.295583  39511.601595   -859.806517    375.421803
PC04 -39661.486700  14358.695380   -562.299052    386.606109
PC05  21920.889342  36019.058935    240.924288    334.972673
PC06 -11700.522765  24373.066210  32282.917481    643.946806
PC07 -12330.122250  40344.655137  -2013.636527    116.239359
PC08   2751.405374  31110.207877 -28246.821705    -18.712197
PC09  -4256.851500  24657.221951  34206.412253   -352.526434
PC10  -6609.236492  40952.114129  -8537.927944    137.532647
PC11  24771.884436  -7929.722518  10131.100460   -330.370087
PC12  26669.191299   3247.984731  -7465.222906   -427.204444
PC13   6311.948078  33401.292825 -24632.742117   -176.564471
PC14  18079.155282 -16412.424026  13481.468256    495.841545
PC16 -17759.772667  23085.936202  30531.293842     25.425226
PC19 -14616.253706  23293.980289  -4758.565757    922.089947
PC20 -18556.386032   8852.730601 -18870.969887   -795.078410
PC21  11550.582891  11834.121880  22490.375713   -948.155687
PC22  -2127.801779  24800.550433  12630.284908   -966.015435
PC23  -7445.301472 -24665.308816 -10734.183725   -963.234018
PC24  19463.363544   3524.302966 -19683.673853   -951.327869
PC25   7526.302596 -16012.749918 -21593.408753   -809.289116
PC26  19572.598514  18525.286136  -7176.854592    807.217181
PC27 -21630.792446  -9082.074998  15086.947428    645.945518
PC28  -2928.656123 -15684.109529  22902.086368      9.457460
PC29 -17161.176966  13738.861991 -17191.289477    488.272018
PC30 -27670.818874   3423.518825   -869.717168    488.876805
PC32 -11609.272158 -11802.630752 -22455.368989   -957.007126
PC33  14545.141758 -23306.782826   4869.711209   -960.398928
PC34  27580.054231  -3960.442621   1751.963290   -513.663528
PC35   2836.154894  15724.772953 -22881.071332     48.313048
PC36  -8293.650969  15429.103961  21741.901318   -833.756293
PC37 -18805.677501 -19690.324664   6194.295839   -914.015585
PC38  -6680.124505  26412.249812 -32115.880635    196.972825
PC39 -21875.384185  23084.065045  27596.370249     34.355378
PC40 -19496.300685  37416.736284   2126.063057    226.972914
PC41   2362.173016 -24949.795249 -12240.777306   -916.506698
PC42  18514.523150  -7833.338883  19387.566068   -933.199420
PC43  17798.913258 -13524.205030  16715.388311   -954.133067
PC44  21815.602061   8537.554460 -15191.935700    499.780941
PC45   7665.283537  24631.947476  10604.857331    628.197840
PC46 -18993.626619  -2294.548213  20331.157091    -63.090055
PC59 -32332.261759  27050.414619    522.440809      0.120600
PC60   7279.918986  41497.135951  -1628.604909     -0.338839
PE01  11249.412197 -19368.646974 -19355.474705   -539.023092
PE02 -11184.786070  19469.861556  19276.113586    267.173463
PE03 -22008.521077  19397.419580   3967.912642   -506.861669
PE04   6071.090457 -21422.502774 -19507.335845   -921.824542
PE05 -25297.393859   5934.691051 -14180.533744   -226.107112
PE07  13819.622815  10805.438132  23838.555289   -618.109020
PE08  -5651.682126  21252.022583  19810.310684   5888.088559
PE09 -13979.212060 -10462.593313 -23907.223714   5428.341510
PE11 -22962.909557 -16433.280173   8862.627302   4882.079706
PE12  -4382.673703 -18236.045912  22902.553140   4858.499885
PE13  22641.618133  16563.032209  -9433.934727    424.721818
PE14 -22995.714201  -1464.820183  12892.273901  -1676.301572
PE15   4364.596919  18131.100468 -22973.736862    774.995472
PE18  17655.601232  12023.019818 -21693.418376  -1843.928544
PE19  23275.287286 -18220.272787  -1642.559797    453.350425
PE21  16703.322785    788.071015 -24422.629894   -705.570109
PE24 -12274.676661 -22541.049451  14761.469803  -1282.407631
PE25 -16723.664785  -1096.188401  24406.848646   -557.031607
PE26  27303.946913   4541.702763  10489.349821   -575.286916
PE27  12857.521074  21554.364069 -15674.694178   -187.899099
PE30    578.657070  29394.593146   3328.444028   -113.567383
PE31  -1491.231473 -29485.680137  -2208.080803   -489.427324
PE33  16419.367533  -9011.761990  22931.882598   -461.395265
PE36 -27508.525796  -5281.507192  -9557.971027   -304.509718
PG01  22527.444576  14399.652684    511.366206    482.800659
PG02  -7927.034401 -18435.269595  18012.428745   -645.814921
PG03  12749.969597  12622.067239  19515.674132    -43.287884
PG04  19616.264691   4185.736048  17449.637493   -198.862274
PG05  -6137.254228 -24213.378982  -8964.091152    -64.573911
PG06   8236.146243 -12174.818971  22190.571496    144.048399
PG07  22422.741127   2654.076087 -13995.031074    291.373685
PG08  10052.738716  11634.982123 -21697.047798    -48.280869
PG09  24327.521410  -6195.506625   8647.076018   -360.341031
PG10 -11634.429904  17502.227412 -15929.718989   -269.858831
PG12 -10883.928623 -15449.104854  18461.595566   -141.475627
PG13  -1285.242994 -15424.829178 -21721.792210    230.218710
PG14  12785.782191 -16944.187435 -15929.572396    -55.941662
PG15 -12160.981848 -10985.806668 -21337.724640    -98.809572
PG16   1076.264487  25513.208910  -6607.005000   -441.078717
PG17  22218.921850 -13739.013838   5329.045203    548.132861
PG18 -21647.641669  -1843.977689 -15350.431052    278.649744
PG19  17255.746827 -15636.653412  12349.767836     92.824121
PG20  -1213.386054 -26581.620640   2226.959732    517.620477
PG21  19636.169927  16435.512470  -7420.558288    153.844636
PG22  11335.762098  19914.060703  13778.922556   -440.307302
PG23 -14793.850599   5788.601629 -21289.557777     21.366038
PG24 -21663.725192 -15242.337447  -4251.365860    274.860998
PG25 -14972.780924  -2900.805777  21489.325006    256.459351
PG26  -5373.151546  24713.463914   7519.676199    165.427869
PG27  -1324.182822  16600.786801 -20782.689024      1.373288
PG28   9510.466599 -22972.235840  -9111.073559    442.150216
PG29 -23630.623382   1330.378301  12073.791216   -454.609300
PG30  16307.837577  -6681.258872 -19867.245226   -499.660692
PG31  -6653.802194  13860.217026  21510.697751   -155.269662
PG32 -19086.316840  16510.629569   8090.211678    -35.848499
PJ01 -29276.378352  29931.797094   -683.950545     94.712892
PJ02 -26432.679712  25189.242068  26084.315535     -0.387498
PJ03 -31911.447531  17804.917405 -16284.624999     -9.409694
PR01 -15437.000530  20166.091797  -2439.569158     89.560846
PR02  -4297.110450  18936.547086  16537.851044    503.413342
PR03   8903.325207   6388.273677  23071.301113     48.226199
PR04  16743.510755  -9583.584219  16716.660063    119.034471
PR05  15545.172292 -20214.835717   1084.687897     84.272854
PR06   2921.489877 -18715.109852 -17114.934404    -21.657676
PR07  -9261.332697  -5839.155315 -23006.239802    -39.174376
PR08 -16776.023758   9656.358903 -16546.575784    -62.561795
PR09  -7693.638757 -23528.352112  -5992.228262     28.987780
PR10 -14022.361180 -18795.901237  10123.051694    -78.029211
PR11 -12687.240389  -2683.388843  21973.215967     48.847486
PR12  -3626.612358  15295.731838  20104.613187    286.911250
PR13   7165.017283  23444.451741   7023.086352    -15.645762
PR14  14147.791030  17963.893666 -11306.522313     72.145177
PR15  12527.928129   2089.190067 -22102.657776     99.553851
PR17  20962.779319   7886.321341 -12153.483216    483.986377
PR18  25122.351306    936.733154   4489.085912    100.652978
PR19  17005.382633  -5685.156094  18146.111425   -170.861108
PR20  -3869.460604 -10786.037074  22798.516167    -61.271678
PR21 -21800.662958  -7491.810185  10960.295527   -262.577932
PR22 -24865.506348   -639.116419  -5439.302976   -151.772429
PR23 -11148.280338   8256.315339 -21406.183320    -23.480707
PR24   4836.675142  11170.466124 -22389.927540     71.411940
EOF
